{
  "type": "FeatureCollection",
  "features": [
    {
      "type": "Feature",
      "properties": {
        "norad_id": 33886,
        "name": "IRIDIUM 33 DEB",
        "group": "iridium-33-debris",
        "lat": 21.172246620618452,
        "lon": -114.03580949151225,
        "alt_km": 770.7035179414834,
        "timestamp": "2025-12-12T09:49:09.116830+00:00",
        "meta_object_name": "IRIDIUM 33 DEB",
        "meta_object_id": "1997-051BF",
        "meta_epoch": "2025-12-12T04:21:45.779040",
        "meta_mean_motion": 14.36051056,
        "meta_eccentricity": 0.0012273,
        "meta_inclination": 86.383,
        "meta_ra_of_asc_node": 67.4637,
        "meta_arg_of_pericenter": 244.1213,
        "meta_mean_anomaly": 180.0704,
        "meta_ephemeris_type": 0,
        "meta_classification_type": "U",
        "meta_norad_cat_id": 33886,
        "meta_element_set_no": 999,
        "meta_rev_at_epoch": 88044,
        "meta_bstar": 0.00030818,
        "meta_mean_motion_dot": 9.16e-06,
        "meta_mean_motion_ddot": 0,
        "tle_line1": "1 33886U 97051BF  25346.18177985  .00000916  00000+0  30818-3 0  9994",
        "tle_line2": "2 33886  86.3830  67.4637 0012273 244.1213 180.0704 14.36051056880448"
      },
      "geometry": {
        "type": "Point",
        "coordinates": [
          -114.03580949151225,
          21.172246620618452
        ]
      }
    },
    {
      "type": "Feature",
      "properties": {
        "norad_id": 33887,
        "name": "IRIDIUM 33 DEB",
        "group": "iridium-33-debris",
        "lat": 84.804033649926,
        "lon": 138.24140867888366,
        "alt_km": 762.4594258346833,
        "timestamp": "2025-12-12T09:49:09.116841+00:00",
        "meta_object_name": "IRIDIUM 33 DEB",
        "meta_object_id": "1997-051BG",
        "meta_epoch": "2025-12-12T01:18:10.642176",
        "meta_mean_motion": 14.37220058,
        "meta_eccentricity": 0.0004387,
        "meta_inclination": 86.3045,
        "meta_ra_of_asc_node": 3.6877,
        "meta_arg_of_pericenter": 229.6742,
        "meta_mean_anomaly": 189.2121,
        "meta_ephemeris_type": 0,
        "meta_classification_type": "U",
        "meta_norad_cat_id": 33887,
        "meta_element_set_no": 999,
        "meta_rev_at_epoch": 88155,
        "meta_bstar": 0.00021882,
        "meta_mean_motion_dot": 6.71e-06,
        "meta_mean_motion_ddot": 0,
        "tle_line1": "1 33887U 97051BG  25346.05428984  .00000671  00000+0  21882-3 0  9998",
        "tle_line2": "2 33887  86.3045   3.6877 0004387 229.6742 189.2121 14.37220058881555"
      },
      "geometry": {
        "type": "Point",
        "coordinates": [
          138.24140867888366,
          84.804033649926
        ]
      }
    },
    {
      "type": "Feature",
      "properties": {
        "norad_id": 33953,
        "name": "IRIDIUM 33 DEB",
        "group": "iridium-33-debris",
        "lat": -72.02361642192058,
        "lon": 42.68464200072199,
        "alt_km": 728.7358341993822,
        "timestamp": "2025-12-12T09:49:09.116852+00:00",
        "meta_object_name": "IRIDIUM 33 DEB",
        "meta_object_id": "1997-051BN",
        "meta_epoch": "2025-12-12T03:40:56.127360",
        "meta_mean_motion": 14.55317216,
        "meta_eccentricity": 0.0018414,
        "meta_inclination": 86.3842,
        "meta_ra_of_asc_node": 54.0336,
        "meta_arg_of_pericenter": 104.659,
        "meta_mean_anomaly": 284.1975,
        "meta_ephemeris_type": 0,
        "meta_classification_type": "U",
        "meta_norad_cat_id": 33953,
        "meta_element_set_no": 999,
        "meta_rev_at_epoch": 88295,
        "meta_bstar": 0.0018822,
        "meta_mean_motion_dot": 8.2e-05,
        "meta_mean_motion_ddot": 0,
        "tle_line1": "1 33953U 97051BN  25346.15342740  .00008200  00000+0  18822-2 0  9993",
        "tle_line2": "2 33953  86.3842  54.0336 0018414 104.6590 284.1975 14.55317216882953"
      },
      "geometry": {
        "type": "Point",
        "coordinates": [
          42.68464200072199,
          -72.02361642192058
        ]
      }
    },
    {
      "type": "Feature",
      "properties": {
        "norad_id": 33960,
        "name": "IRIDIUM 33 DEB",
        "group": "iridium-33-debris",
        "lat": 56.15565791190916,
        "lon": -64.72109898415039,
        "alt_km": 602.6025797268085,
        "timestamp": "2025-12-12T09:49:09.116863+00:00",
        "meta_object_name": "IRIDIUM 33 DEB",
        "meta_object_id": "1997-051BV",
        "meta_epoch": "2025-12-11T20:52:13.312128",
        "meta_mean_motion": 14.85121731,
        "meta_eccentricity": 0.0007473,
        "meta_inclination": 86.253,
        "meta_ra_of_asc_node": 289.9247,
        "meta_arg_of_pericenter": 63.6989,
        "meta_mean_anomaly": 349.9861,
        "meta_ephemeris_type": 0,
        "meta_classification_type": "U",
        "meta_norad_cat_id": 33960,
        "meta_element_set_no": 999,
        "meta_rev_at_epoch": 88854,
        "meta_bstar": 0.0046476,
        "meta_mean_motion_dot": 0.00039972,
        "meta_mean_motion_ddot": 0,
        "tle_line1": "1 33960U 97051BV  25345.86959852  .00039972  00000+0  46476-2 0  9992",
        "tle_line2": "2 33960  86.2530 289.9247 0007473  63.6989 349.9861 14.85121731888546"
      },
      "geometry": {
        "type": "Point",
        "coordinates": [
          -64.72109898415039,
          56.15565791190916
        ]
      }
    },
    {
      "type": "Feature",
      "properties": {
        "norad_id": 33966,
        "name": "IRIDIUM 33 DEB",
        "group": "iridium-33-debris",
        "lat": 60.201102518705824,
        "lon": 52.494060422103004,
        "alt_km": 724.4988670947514,
        "timestamp": "2025-12-12T09:49:09.116873+00:00",
        "meta_object_name": "IRIDIUM 33 DEB",
        "meta_object_id": "1997-051CB",
        "meta_epoch": "2025-12-12T03:02:34.566144",
        "meta_mean_motion": 14.49590623,
        "meta_eccentricity": 0.0007335,
        "meta_inclination": 86.3923,
        "meta_ra_of_asc_node": 46.2902,
        "meta_arg_of_pericenter": 190.2619,
        "meta_mean_anomaly": 197.7805,
        "meta_ephemeris_type": 0,
        "meta_classification_type": "U",
        "meta_norad_cat_id": 33966,
        "meta_element_set_no": 999,
        "meta_rev_at_epoch": 88433,
        "meta_bstar": 0.00086848,
        "meta_mean_motion_dot": 3.353e-05,
        "meta_mean_motion_ddot": 0,
        "tle_line1": "1 33966U 97051CB  25346.12678896  .00003353  00000+0  86848-3 0  9996",
        "tle_line2": "2 33966  86.3923  46.2902 0007335 190.2619 197.7805 14.49590623884335"
      },
      "geometry": {
        "type": "Point",
        "coordinates": [
          52.494060422103004,
          60.201102518705824
        ]
      }
    },
    {
      "type": "Feature",
      "properties": {
        "norad_id": 34071,
        "name": "IRIDIUM 33 DEB",
        "group": "iridium-33-debris",
        "lat": 52.68763479892422,
        "lon": -166.83773999890118,
        "alt_km": 715.8821600543934,
        "timestamp": "2025-12-12T09:49:09.116883+00:00",
        "meta_object_name": "IRIDIUM 33 DEB",
        "meta_object_id": "1997-051CE",
        "meta_epoch": "2025-12-12T02:36:29.156256",
        "meta_mean_motion": 14.49460742,
        "meta_eccentricity": 0.0009929,
        "meta_inclination": 86.346,
        "meta_ra_of_asc_node": 18.1025,
        "meta_arg_of_pericenter": 109.4154,
        "meta_mean_anomaly": 250.8124,
        "meta_ephemeris_type": 0,
        "meta_classification_type": "U",
        "meta_norad_cat_id": 34071,
        "meta_element_set_no": 999,
        "meta_rev_at_epoch": 88325,
        "meta_bstar": 0.00096011,
        "meta_mean_motion_dot": 3.696e-05,
        "meta_mean_motion_ddot": 0,
        "tle_line1": "1 34071U 97051CE  25346.10867079  .00003696  00000+0  96011-3 0  9998",
        "tle_line2": "2 34071  86.3460  18.1025 0009929 109.4154 250.8124 14.49460742883253"
      },
      "geometry": {
        "type": "Point",
        "coordinates": [
          -166.83773999890118,
          52.68763479892422
        ]
      }
    },
    {
      "type": "Feature",
      "properties": {
        "norad_id": 34077,
        "name": "IRIDIUM 33 DEB",
        "group": "iridium-33-debris",
        "lat": -48.899635041727265,
        "lon": 47.49845992916555,
        "alt_km": 684.4826513160906,
        "timestamp": "2025-12-12T09:49:09.116894+00:00",
        "meta_object_name": "IRIDIUM 33 DEB",
        "meta_object_id": "1997-051CL",
        "meta_epoch": "2025-12-12T03:35:01.827744",
        "meta_mean_motion": 14.64827938,
        "meta_eccentricity": 0.0010268,
        "meta_inclination": 86.3861,
        "meta_ra_of_asc_node": 51.7674,
        "meta_arg_of_pericenter": 41.2914,
        "meta_mean_anomaly": 340.71,
        "meta_ephemeris_type": 0,
        "meta_classification_type": "U",
        "meta_norad_cat_id": 34077,
        "meta_element_set_no": 999,
        "meta_rev_at_epoch": 88324,
        "meta_bstar": 0.0021064,
        "meta_mean_motion_dot": 0.00011278,
        "meta_mean_motion_ddot": 0,
        "tle_line1": "1 34077U 97051CL  25346.14932671  .00011278  00000+0  21064-2 0  9999",
        "tle_line2": "2 34077  86.3861  51.7674 0010268  41.2914 340.7100 14.64827938883245"
      },
      "geometry": {
        "type": "Point",
        "coordinates": [
          47.49845992916555,
          -48.899635041727265
        ]
      }
    }
  ]
}